#cP2022 10  6  0  0  0.00000000      96 ORBIT IGb14 HLM  IGS
## 2230 345600.00000000   900.00000000 59858 0.0000000000000
+   32   G01G02G03G04G05G06G07G08G09G10G11G12G13G14G15G16G17
+        G18G19G20G21G22G23G24G25G26G27G28G29G30G31G32  0  0
+          0  0  0  0  0  0  0  0  0  0  0  0  0  0  0  0  0
+          0  0  0  0  0  0  0  0  0  0  0  0  0  0  0  0  0
+          0  0  0  0  0  0  0  0  0  0  0  0  0  0  0  0  0
++         2  2  0  2  2  2  2  2  2  2  3  2  2  2  2  2  2
++         3  2  2  2  2  2  3  2  2  2  2  2  2  2  2  0  0
++         0  0  0  0  0  0  0  0  0  0  0  0  0  0  0  0  0
++         0  0  0  0  0  0  0  0  0  0  0  0  0  0  0  0  0
++         0  0  0  0  0  0  0  0  0  0  0  0  0  0  0  0  0
%c G  cc GPS ccc cccc cccc cccc cccc ccccc ccccc ccccc ccccc
%c cc cc ccc ccc cccc cccc cccc cccc ccccc ccccc ccccc ccccc
%f  1.2500000  1.025000000  0.00000000000  0.000000000000000
%f  0.0000000  0.000000000  0.00000000000  0.000000000000000
%i    0    0    0    0      0      0      0      0         0
%i    0    0    0    0      0      0      0      0         0
/* RAPID ORBIT COMBINATION FROM WEIGHTED AVERAGE OF:        
/* cod emr esa gfz jpl ngs sio usn whu                      
/* REFERENCED TO IGS TIME (IGST) AND TO WEIGHTED MEAN POLE: 
/* PCV:IGS14_2223 OL/AL:FES2004  NONE     Y  ORB:CMB CLK:CMB
*  2022 10  6  5 15  0.00000000
PG01  13784.498338 -20773.279313   8338.892139    272.123354  6  5  4  98       
PG02 -13841.546232  18936.102673 -12013.921530   -643.484620  5  9  6 113       
PG03  20448.372013 -11908.860323 -12079.571465   -361.109419           51       
PG04   9179.392452 -12594.305430 -21494.888490   -108.044995  7  4  5 110       
PG05 -25847.943067   6311.800126    833.601823    -99.325585  7  7  5  81       
PG06  -9580.769132 -13431.700088 -20732.812736    482.874805  5  6  4 101       
PG07   4492.887135 -25229.346047   6326.479823    301.437744  6  7  2 105       
PG08  16368.972117  -3240.930137  20701.774835    -87.612465  3  2  6  92       
PG09  -1940.618415 -20424.641186 -16924.561575   -287.009308  6        99       
PG10  11306.670873  12336.918549  20850.011192     -6.300809  5  6  4  99       
PG11 -15444.115049  -1847.680820 -21523.301528    -22.803783  7 10  5 104       
PG12 -21269.882268  10560.280976 -12055.649809   -288.944575  7  6  5  88       
PG13 -18486.839225  -6293.405222  17917.308094    400.787834  4  7  4  82       
PG14  -8789.872300 -13850.226989  20916.665382    -97.791601  3  7  6  82       
PG15 -16135.896476   5426.358391  20010.131672    -23.245549  6  3  5 110       
PG16  26379.333229   1150.818317  -4912.738749   -525.751832  2  5  3  89       
PG17 -11995.299049 -23011.695695   5932.215980    666.014746     8  5  65       
PG18  -4384.727994  25092.431773   7260.551563     24.530496  6 13  4  94       
PG19 -17478.872801 -19507.284362  -5403.040476    220.043862  4  6  6  76       
PG20 -23322.766186  -1356.510480 -12406.670255    480.675231  5  8  7  89       
PG21  15826.503341 -13326.409096  16829.213127    158.454077  3  5  5 104       
PG22  18445.602566  17792.090715  -6895.335211    340.542319  4  5  5  94       
PG23   -701.304770  15302.913900  21673.469618     -0.795677  4  4  2 108       
PG24 -14306.805888  18307.280205  12152.317149    110.405256  7  6  5 118       
PG25 -10229.742093  15618.982853 -19074.868496    379.448934  4  7  6  93       
PG26  22111.260342   5360.863135 -14050.233223    231.376866     4  7 100       
PG27  20455.090732   8911.787273  14488.789116    202.431872  5  6  4  90       
PG28 -17285.896765 -10690.040405  17470.813461    332.281479  4  8  2  96       
PG29   -546.469878  19729.787143 -17775.533837   -557.396612  6  7  6 117       
PG30  -4055.160216 -21215.492971  15379.633843   -537.229286  6  8  4 116       
PG31  11016.258727  12317.937080 -20843.154432   -195.823364  3  3  3  74       
PG32  15516.697892  21494.826008   3038.472782   -254.614668  3  3  4  91       
*  2022 10  6  5 30  0.00000000
PG01  13586.553146 -19622.961450  10972.294438    272.117730  6  4  5 104       
PG02 -13656.561879  17343.862848 -14280.038003   -643.483621  4  8  6 101       
PG03  21684.110366 -11973.737113  -9564.115889   -361.113773           44       
PG04  10788.884129 -10712.013289 -21774.753789   -108.039651  7  4  5 112       
PG05 -25860.836884   6065.657813  -2017.084850    -99.326940  6  8  6  72       
PG06  -8773.930425 -15599.780866 -19534.753040    482.885057  6  5  4 101       
PG07   4951.901222 -25631.385966   3537.203477    301.434633  6  8  1 101       
PG08  17890.397876  -1504.058905  19648.267753    -87.614183  3  2  6  92       
PG09   -448.770055 -19055.058476 -18559.648421   -287.004756  6       106       
PG10   8979.331458  12876.279652  21619.830412     -6.302231  5  6  4 105       
PG11 -14572.847817  -4168.510786 -21807.789557    -22.807285  6 10  4  93       
PG12 -22489.928391  10518.961334  -9554.952755   -288.948462  6  6  5 107       
PG13 -19474.413173  -8003.123967  16132.675277    400.793854  4  7  3  60       
PG14  -6409.438711 -14312.274641  21453.761113    -97.788374  3  7  6  82       
PG15 -17819.411520   3825.070784  18973.882608    -23.242702  6  4  5 107       
PG16  25730.149264   1418.260709  -7636.039351   -525.752253  2  5  3  82       
PG17 -11358.263296 -22518.065978   8661.719546    666.017725  1  8  5  59       
PG18  -4817.720416  25655.227598   4478.627368     24.518564  6 14  3  71       
PG19 -17576.233626 -19962.096046  -2579.301129    220.047833  4  6  6 100       
PG20 -21958.225737  -2150.337188 -14609.529631    480.672493  5  8  7  99       
PG21  15545.812813 -11395.738526  18551.024964    158.453186  2  4  6 107       
PG22  18664.975485  18474.529859  -4140.970090    340.548450  3  6  5  94       
PG23  -3093.235808  15823.001063  21071.230086     -0.795965  4  4  2 108       
PG24 -14223.300508  16697.389589  14353.503903    110.392523  7  6  4 111       
PG25 -12267.146222  15907.997173 -17524.797549    379.452514  4  7  5  90       
PG26  20525.057666   6013.635033 -16034.020493    231.378220     4  7  99       
PG27  21368.889774  10169.022126  12232.719065    202.426765  5  6  4  87       
PG28 -15306.995613 -11052.530270  19085.657899    332.277530  4  7  2 105       
PG29  -1922.144962  18121.129094 -19335.541822   -557.399404  6  7  6 106       
PG30  -3282.578979 -22685.990552  13289.692950   -537.229312  6  8  4 108       
PG31  10140.815034  14460.155830 -19840.429718   -195.824760  3  4  4  73       
PG32  15011.326843  21295.608437   5819.268774   -254.625209  3  3  4 101       
*  2022 10  6  5 45  0.00000000
PG01  13375.465200 -18180.704058  13410.505165    272.112098  6  4  5 107       
PG02 -13513.771371  15496.658592 -16292.759848   -643.482153  3  6  6  97       
PG03  22631.377370 -12027.101238  -6883.926749   -361.118167           45       
PG04  12501.044118  -8909.507976 -21679.827350   -108.034300  7  3  5 116       
PG05 -25581.871094   5724.505324  -4833.377551    -99.327679  6  8  6  70       
PG06  -8130.416014 -17659.526711 -17998.037968    482.895224  6  3  4 118       
PG07   5310.852880 -25744.810810    685.583846    301.431656  6  8     92       
PG08  19398.975698     52.976382  18258.747818    -87.614918  2  2  5  88       
PG09   1231.255346 -17649.224414 -19876.925643   -287.000209  6  1  2 107       
PG10   6619.128623  13561.180301  22024.170778     -6.304034  5  6  4 105       
PG11 -13821.688738  -6542.080212 -21716.946609    -22.810825  5 10  2  92       
PG12 -23426.045546  10484.237640  -6890.628864   -288.952581  6  6  6  99       
PG13 -20418.445011  -9481.899176  14069.292101    400.800483  4  8  3  84       
PG14  -4015.566146 -14903.497768  21622.286692    -97.785149  3  8  6  79       
PG15 -19463.240415   2391.086092  17601.710364    -23.240034  5  5  5 101       
PG16  24804.526091   1771.730165 -10232.504574   -525.752886  1  4  3  97       
PG17 -10499.401785 -21836.207819  11243.952260    666.021314  2  8  5  51       
PG18  -5132.549281  25931.673677   1618.965138     24.506643  6 14  4  83       
PG19 -17494.943587 -20163.916114    288.010506    220.052594  4  7  6 108       
PG20 -20420.596635  -3106.701917 -16558.167174    480.669524  5  7  7 103       
PG21  15335.197285  -9289.570562  19960.448087    158.452574  2  4  6 108       
PG22  18716.827742  18901.224448  -1315.498360    340.554605  3  7  5 102       
PG23  -5369.970353  16444.529353  20105.259210     -0.796256  4  4  2 103       
PG24 -14173.203978  14851.299627  16297.758479    110.379783  7  4  3 103       
PG25 -14106.834224  16249.192814 -15676.478019    379.456118  5  7  5 101       
PG26  18775.458978   6809.863736 -17747.103096    231.379511     4  7  98       
PG27  22159.055668  11184.383424   9767.971176    202.421651  5  6  5  70       
PG28 -13194.837352 -11547.056219  20382.457022    332.274247  4  7  3  99       
PG29  -3487.138388  16471.818001 -20563.177361   -557.402181  6  7  6 101       
PG30  -2647.074218 -23952.886796  10969.392466   -537.229328  6  8  4 112       
PG31   9410.598859  16521.024127 -18496.409365   -195.825778  3  6  4  70       
PG32  14277.220929  20908.082960   8501.441240   -254.635725  3  4  3  97       
EOF
